OBJECT_NAME,OBJECT_ID,EPOCH,MEAN_MOTION,ECCENTRICITY,INCLINATION,RA_OF_ASC_NODE,ARG_OF_PERICENTER,MEAN_ANOMALY,EPHEMERIS_TYPE,CLASSIFICATION_TYPE,NORAD_CAT_ID,ELEMENT_SET_NO,REV_AT_EPOCH,BSTAR,MEAN_MOTION_DOT,MEAN_MOTION_DDOT
SPACEMOBILE-004,2024-163E,2026-07-16T08:16:06.262752,15.20779499,.0005984,52.9692,174.8353,230.9141,129.1322,0,U,61049,999,10220,.56003078E-3,.12194E-3,0
CZ-8A R/B,2025-231K,2026-07-17T05:42:32.688576,14.30162497,.01165641,50.0038,271.4681,329.7979,29.6253,0,U,66004,999,3924,.44417116E-4,-.4E-6,0
SZ-21 MODULE,2025-246C,2026-07-16T23:12:05.817600,15.78939225,.00086469,41.4717,121.4946,232.6437,127.3622,0,U,66515,999,3844,.19672523E-3,.35792E-3,0
SPACEMOBILE-006,2025-309A,2026-07-16T09:29:27.795840,15.18656625,.0009991,52.9935,197.8358,219.1469,140.8802,0,U,67232,999,3103,.58828E-4,.913E-5,0
SPACEMOBILE-008,2026-139A,2026-07-17T04:49:14.783520,15.12803619,.00051374,52.9950,126.3014,61.2203,298.9303,0,U,69589,999,452,.32352775E-4,.273E-5,0
SPACEMOBILE-009,2026-139B,2026-07-17T04:52:16.568256,15.12696995,.0005408,52.9941,126.3087,57.2840,302.8672,0,U,69590,999,452,.33869431E-4,.298E-5,0
SPACEMOBILE-010,2026-139C,2026-07-17T04:57:04.562784,15.12530958,.00053327,52.9948,126.3326,49.3144,310.8309,0,U,69591,999,453,.46400419E-4,.517E-5,0
